start=new Date('2021-11-21T00:00:00.000Z').valueOf();
sats=[{"OBJECT_TYPE":"PAYLOAD","RCS_SIZE":"LARGE","RA_OF_ASC_NODE":"297.6147","TIME_SYSTEM":"UTC","ECCENTRICITY":"0.00033180","NORAD_CAT_ID":"49159","OBJECT_ID":"2021-082AF","REV_AT_EPOCH":"368","REF_FRAME":"TEME","MEAN_ANOMALY":"327.1982","COUNTRY_CODE":"US","PERIAPSIS":"406.640","LAUNCH_DATE":"2021-09-14","TLE_LINE2":"2 49159  69.9997 297.6147 0003318 276.1285 327.1982 15.52685258  3687","EPOCH":"2021-11-20T14:00:01.000224","PERIOD":"92.743","CLASSIFICATION_TYPE":"U","DECAY_DATE":null,"GP_ID":"190143472","MEAN_MOTION":"15.52685258","SEMIMAJOR_AXIS":"6787.027","MEAN_MOTION_DOT":"-0.00660127","ARG_OF_PERICENTER":"276.1285","OBJECT_NAME":"STARLINK-3056","EPHEMERIS_TYPE":"0","MEAN_MOTION_DDOT":"0.0000000000000","INCLINATION":"69.9997","ELEMENT_SET_NO":"999","CENTER_NAME":"EARTH","FILE":"3220049","APOAPSIS":"411.144","MEAN_ELEMENT_THEORY":"SGP4","TLE_LINE1":"1 49159U 21082AF  21324.58334491 -.00660127  00000-0 -11577-1 0  9996","SITE":"AFWTR","BSTAR":"-0.01157700000000"},{"DECAY_DATE":null,"GP_ID":"190143936","PERIOD":"92.714","CLASSIFICATION_TYPE":"U","ARG_OF_PERICENTER":"274.2889","OBJECT_NAME":"STARLINK-3095","EPHEMERIS_TYPE":"0","MEAN_MOTION":"15.53168769","SEMIMAJOR_AXIS":"6785.618","MEAN_MOTION_DOT":"-0.00660304","INCLINATION":"69.9997","ELEMENT_SET_NO":"999","CENTER_NAME":"EARTH","FILE":"3220049","APOAPSIS":"409.752","MEAN_MOTION_DDOT":"0.0000000000000","TLE_LINE1":"1 49160U 21082AG  21324.58334491 -.00660304  00000-0 -11379-1 0  9995","SITE":"AFWTR","BSTAR":"-0.01137900000000","MEAN_ELEMENT_THEORY":"SGP4","RCS_SIZE":"LARGE","RA_OF_ASC_NODE":"297.5959","OBJECT_TYPE":"PAYLOAD","ECCENTRICITY":"0.00033440","NORAD_CAT_ID":"49160","TIME_SYSTEM":"UTC","REF_FRAME":"TEME","MEAN_ANOMALY":"358.4063","OBJECT_ID":"2021-082AG","REV_AT_EPOCH":"368","TLE_LINE2":"2 49160  69.9997 297.5959 0003344 274.2889 358.4063 15.53168769  3688","EPOCH":"2021-11-20T14:00:01.000224","COUNTRY_CODE":"US","PERIAPSIS":"405.214","LAUNCH_DATE":"2021-09-14"},{"MEAN_ELEMENT_THEORY":"SGP4","BSTAR":"-0.01151700000000","SITE":"AFWTR","TLE_LINE1":"1 49161U 21082AH  21324.58334491 -.00660252  00000-0 -11517-1 0  9992","MEAN_MOTION_DDOT":"0.0000000000000","APOAPSIS":"410.730","FILE":"3220049","ELEMENT_SET_NO":"999","CENTER_NAME":"EARTH","INCLINATION":"69.9997","MEAN_MOTION_DOT":"-0.00660252","SEMIMAJOR_AXIS":"6786.593","MEAN_MOTION":"15.52834144","EPHEMERIS_TYPE":"0","OBJECT_NAME":"STARLINK-3080","ARG_OF_PERICENTER":"277.7977","CLASSIFICATION_TYPE":"U","PERIOD":"92.734","GP_ID":"190143345","DECAY_DATE":null,"LAUNCH_DATE":"2021-09-14","PERIAPSIS":"406.186","COUNTRY_CODE":"US","EPOCH":"2021-11-20T14:00:01.000224","TLE_LINE2":"2 49161  69.9997 297.6097 0003348 277.7977 336.2681 15.52834144  3689","REV_AT_EPOCH":"368","OBJECT_ID":"2021-082AH","MEAN_ANOMALY":"336.2681","REF_FRAME":"TEME","TIME_SYSTEM":"UTC","NORAD_CAT_ID":"49161","ECCENTRICITY":"0.00033480","OBJECT_TYPE":"PAYLOAD","RA_OF_ASC_NODE":"297.6097","RCS_SIZE":"LARGE"},{"RCS_SIZE":"LARGE","RA_OF_ASC_NODE":"297.5930","OBJECT_TYPE":"PAYLOAD","ECCENTRICITY":"0.00033640","NORAD_CAT_ID":"49162","TIME_SYSTEM":"UTC","MEAN_ANOMALY":"6.7296","REF_FRAME":"TEME","OBJECT_ID":"2021-082AJ","REV_AT_EPOCH":"368","TLE_LINE2":"2 49162  69.9998 297.5930 0003364 274.4101   6.7296 15.53267604  3680","EPOCH":"2021-11-20T14:00:01.000224","PERIAPSIS":"404.913","COUNTRY_CODE":"US","LAUNCH_DATE":"2021-09-14","DECAY_DATE":null,"GP_ID":"190143809","PERIOD":"92.708","CLASSIFICATION_TYPE":"U","OBJECT_NAME":"STARLINK-3082","ARG_OF_PERICENTER":"274.4101","EPHEMERIS_TYPE":"0","MEAN_MOTION":"15.53267604","MEAN_MOTION_DOT":"-0.00660297","SEMIMAJOR_AXIS":"6785.330","INCLINATION":"69.9998","APOAPSIS":"409.478","FILE":"3220049","ELEMENT_SET_NO":"999","CENTER_NAME":"EARTH","MEAN_MOTION_DDOT":"0.0000000000000","SITE":"AFWTR","TLE_LINE1":"1 49162U 21082AJ  21324.58334491 -.00660297  00000-0 -11338-1 0  9993","BSTAR":"-0.01133800000000","MEAN_ELEMENT_THEORY":"SGP4"},{"INCLINATION":"69.9983","FILE":"3220115","APOAPSIS":"362.192","ELEMENT_SET_NO":"999","CENTER_NAME":"EARTH","MEAN_MOTION_DDOT":"0.0000000000000","SITE":"AFWTR","TLE_LINE1":"1 49163U 21082AK  21324.91667824  .00035624  00000-0  29911-3 0  9996","BSTAR":"0.00029911000000","MEAN_ELEMENT_THEORY":"SGP4","DECAY_DATE":null,"GP_ID":"190145391","PERIOD":"91.735","CLASSIFICATION_TYPE":"U","OBJECT_NAME":"STARLINK-3088","ARG_OF_PERICENTER":"282.0118","EPHEMERIS_TYPE":"0","MEAN_MOTION":"15.69732949","MEAN_MOTION_DOT":"0.00035624","SEMIMAJOR_AXIS":"6737.798","MEAN_ANOMALY":"68.8739","REF_FRAME":"TEME","OBJECT_ID":"2021-082AK","REV_AT_EPOCH":"1191","TLE_LINE2":"2 49163  69.9983 296.2659 0003753 282.0118  68.8739 15.69732949 11916","EPOCH":"2021-11-20T22:00:00.999936","PERIAPSIS":"357.134","COUNTRY_CODE":"US","LAUNCH_DATE":"2021-09-14","RCS_SIZE":"LARGE","RA_OF_ASC_NODE":"296.2659","OBJECT_TYPE":"PAYLOAD","ECCENTRICITY":"0.00037530","NORAD_CAT_ID":"49163","TIME_SYSTEM":"UTC"},{"MEAN_ELEMENT_THEORY":"SGP4","TLE_LINE1":"1 49164U 21082AL  21324.91667824  .00034807  00000-0  29254-3 0  9999","SITE":"AFWTR","BSTAR":"0.00029254000000","MEAN_MOTION_DDOT":"0.0000000000000","INCLINATION":"69.9982","ELEMENT_SET_NO":"999","CENTER_NAME":"EARTH","APOAPSIS":"362.087","FILE":"3220115","MEAN_MOTION":"15.69715696","SEMIMAJOR_AXIS":"6737.847","MEAN_MOTION_DOT":"0.00034807","ARG_OF_PERICENTER":"283.4909","OBJECT_NAME":"STARLINK-3106","EPHEMERIS_TYPE":"0","PERIOD":"91.736","CLASSIFICATION_TYPE":"U","DECAY_DATE":null,"GP_ID":"190145385","COUNTRY_CODE":"US","PERIAPSIS":"357.338","LAUNCH_DATE":"2021-09-14","TLE_LINE2":"2 49164  69.9982 296.2550 0003524 283.4909  78.0409 15.69715696 11912","EPOCH":"2021-11-20T22:00:00.999936","OBJECT_ID":"2021-082AL","REV_AT_EPOCH":"1191","REF_FRAME":"TEME","MEAN_ANOMALY":"78.0409","TIME_SYSTEM":"UTC","ECCENTRICITY":"0.00035240","NORAD_CAT_ID":"49164","OBJECT_TYPE":"PAYLOAD","RCS_SIZE":"LARGE","RA_OF_ASC_NODE":"296.2550"},{"OBJECT_TYPE":"PAYLOAD","RCS_SIZE":"LARGE","RA_OF_ASC_NODE":"297.5922","TIME_SYSTEM":"UTC","ECCENTRICITY":"0.00033760","NORAD_CAT_ID":"49165","OBJECT_ID":"2021-082AM","REV_AT_EPOCH":"368","MEAN_ANOMALY":"15.0207","REF_FRAME":"TEME","PERIAPSIS":"404.584","COUNTRY_CODE":"US","LAUNCH_DATE":"2021-09-14","TLE_LINE2":"2 49165  69.9998 297.5922 0003376 272.8810  15.0207 15.53377596  3683","EPOCH":"2021-11-20T14:00:01.000224","PERIOD":"92.701","CLASSIFICATION_TYPE":"U","DECAY_DATE":null,"GP_ID":"190143049","MEAN_MOTION":"15.53377596","MEAN_MOTION_DOT":"-0.00660151","SEMIMAJOR_AXIS":"6785.010","OBJECT_NAME":"STARLINK-3052","ARG_OF_PERICENTER":"272.8810","EPHEMERIS_TYPE":"0","MEAN_MOTION_DDOT":"0.0000000000000","INCLINATION":"69.9998","FILE":"3220049","APOAPSIS":"409.165","ELEMENT_SET_NO":"999","CENTER_NAME":"EARTH","MEAN_ELEMENT_THEORY":"SGP4","SITE":"AFWTR","TLE_LINE1":"1 49165U 21082AM  21324.58334491 -.00660151  00000-0 -11290-1 0  9992","BSTAR":"-0.01129000000000"},{"TLE_LINE2":"2 49166  69.9976 296.2545 0003619 282.8819  76.4854 15.69780422 11947","EPOCH":"2021-11-20T22:00:00.999936","COUNTRY_CODE":"US","PERIAPSIS":"357.089","LAUNCH_DATE":"2021-09-14","REF_FRAME":"TEME","MEAN_ANOMALY":"76.4854","OBJECT_ID":"2021-082AN","REV_AT_EPOCH":"1194","ECCENTRICITY":"0.00036190","NORAD_CAT_ID":"49166","TIME_SYSTEM":"UTC","RCS_SIZE":"LARGE","RA_OF_ASC_NODE":"296.2545","OBJECT_TYPE":"PAYLOAD","TLE_LINE1":"1 49166U 21082AN  21324.91667824 -.00015122  00000-0 -12495-3 0  9991","SITE":"AFWTR","BSTAR":"-0.00012495000000","MEAN_ELEMENT_THEORY":"SGP4","INCLINATION":"69.9976","CENTER_NAME":"EARTH","ELEMENT_SET_NO":"999","FILE":"3220221","APOAPSIS":"361.966","MEAN_MOTION_DDOT":"0.0000000000000","ARG_OF_PERICENTER":"282.8819","OBJECT_NAME":"STARLINK-3089","EPHEMERIS_TYPE":"0","MEAN_MOTION":"15.69780422","SEMIMAJOR_AXIS":"6737.662","MEAN_MOTION_DOT":"-0.00015122","DECAY_DATE":null,"GP_ID":"190147703","PERIOD":"91.733","CLASSIFICATION_TYPE":"U"},{"BSTAR":"-0.01124600000000","TLE_LINE1":"1 49167U 21082AP  21324.58334491 -.00660249  00000-0 -11246-1 0  9993","SITE":"AFWTR","MEAN_ELEMENT_THEORY":"SGP4","ELEMENT_SET_NO":"999","CENTER_NAME":"EARTH","FILE":"3220049","APOAPSIS":"408.837","INCLINATION":"69.9998","MEAN_MOTION_DDOT":"0.0000000000000","EPHEMERIS_TYPE":"0","ARG_OF_PERICENTER":"267.6963","OBJECT_NAME":"STARLINK-3054","SEMIMAJOR_AXIS":"6784.685","MEAN_MOTION_DOT":"-0.00660249","MEAN_MOTION":"15.53489304","GP_ID":"190143473","DECAY_DATE":null,"CLASSIFICATION_TYPE":"U","PERIOD":"92.695","EPOCH":"2021-11-20T14:00:01.000224","TLE_LINE2":"2 49167  69.9998 297.5911 0003372 267.6963  27.0049 15.53489304  3688","LAUNCH_DATE":"2021-09-14","COUNTRY_CODE":"US","PERIAPSIS":"404.262","REF_FRAME":"TEME","MEAN_ANOMALY":"27.0049","REV_AT_EPOCH":"368","OBJECT_ID":"2021-082AP","NORAD_CAT_ID":"49167","ECCENTRICITY":"0.00033720","TIME_SYSTEM":"UTC","RA_OF_ASC_NODE":"297.5911","RCS_SIZE":"LARGE","OBJECT_TYPE":"PAYLOAD"},{"MEAN_ELEMENT_THEORY":"SGP4","TLE_LINE1":"1 49168U 21082AQ  21324.91667824  .00034597  00000-0  29040-3 0  9992","SITE":"AFWTR","BSTAR":"0.00029040000000","MEAN_MOTION_DDOT":"0.0000000000000","INCLINATION":"69.9972","ELEMENT_SET_NO":"999","CENTER_NAME":"EARTH","APOAPSIS":"362.268","FILE":"3220133","MEAN_MOTION":"15.69746154","SEMIMAJOR_AXIS":"6737.760","MEAN_MOTION_DOT":"0.00034597","ARG_OF_PERICENTER":"281.8668","OBJECT_NAME":"STARLINK-3101","EPHEMERIS_TYPE":"0","PERIOD":"91.735","CLASSIFICATION_TYPE":"U","DECAY_DATE":null,"GP_ID":"190145956","COUNTRY_CODE":"US","PERIAPSIS":"356.983","LAUNCH_DATE":"2021-09-14","TLE_LINE2":"2 49168  69.9972 296.2437 0003922 281.8668  85.8811 15.69746154 11955","EPOCH":"2021-11-20T22:00:00.999936","OBJECT_ID":"2021-082AQ","REV_AT_EPOCH":"1195","REF_FRAME":"TEME","MEAN_ANOMALY":"85.8811","TIME_SYSTEM":"UTC","ECCENTRICITY":"0.00039220","NORAD_CAT_ID":"49168","OBJECT_TYPE":"PAYLOAD","RCS_SIZE":"LARGE","RA_OF_ASC_NODE":"296.2437"}];
